NOAA 2 (ITOS-D)
1 06235U 72082A   26032.97399248 -.00000034  00000-0  80918-4 0  9997
2 06235 102.0179  50.0169 0004240  71.6348 353.8844 12.53210505438013
SOLRAD-7B
1 01291U 65016D   26032.80394046  .00000018  00000-0  51989-4 0  9993
2 01291  70.0791 164.0886 0023536 295.3535  64.5133 13.94956681 97823
OSCAR-7 (AO-7)
1 07530U 74089B   26032.96414976 -.00000037  00000-0  57465-4 0  9994
2 07530 101.9969  44.7712 0012306  30.4133  25.1503 12.53695581343576
UOSAT-2 (UO-11)
1 14781U 84021B   26032.89020193  .00001271  00000-0  13634-3 0  9992
2 14781  97.7883   0.1523 0006044 273.1526  86.9000 14.90364186236978
FLTSATCOM-7 (USA-20)
1 17181U 86096A   26032.51155923 -.00000044  00000-0  00000-0 0  9990
2 17181  12.8099 340.9362 0043854 325.9606 215.5495  0.98928696150623
FLTSATCOM-8 (USA-46)
1 20253U 89077A   26032.80072929 -.00000373  00000-0  00000-0 0  9997
2 20253  12.4581 351.9751 0008791 322.0738 231.8719  1.00278789259207
OSCAR 16 (PACSAT)
1 20439U 90005D   26032.94423858  .00000153  00000-0  71629-4 0  9996
2 20439  98.8695  65.3435 0009534 268.3159 163.7375 14.33886432882558
LUSAT (LO-19)
1 20442U 90005G   26032.96811511  .00000158  00000-0  73263-4 0  9990
2 20442  98.8949  50.9828 0010667 240.0997 119.9128 14.34071852883010
UFO 2 (USA 95)
1 22787U 93056A   26032.56758470  .00000117  00000-0  00000-0 0  9993
2 22787  11.8551   4.2886 0008264 324.9241  35.5845  1.00269289117187
EYESAT-1 (AO-27)
1 22825U 93061C   26032.76528600  .00000129  00000-0  66306-4 0  9992
2 22825  98.7059 100.1342 0009207 133.3291 226.8661 14.30900041687633
ITAMSAT (IO-26) 
1 22826U 93061D   26032.71496654  .00000161  00000-0  77593-4 0  9997
2 22826  98.7010  99.9878 0009915 118.8127 241.4053 14.31323087687933
UFO 3 (USA 104)
1 23132U 94035A   26032.70313210 -.00000091  00000-0  00000-0 0  9993
2 23132  12.3065   6.5235 0006397 281.5224  89.8327  1.00263672130345
RADIO ROSTO (RS-15)
1 23439U 94085A   26032.95382660 -.00000040  00000-0  56062-4 0  9997
2 23439  64.8148 161.9253 0151410  28.8353 332.0836 11.27583666280653
UFO 4 (USA 108)
1 23467U 95003A   26032.73867563 -.00000029  00000-0  00000-0 0  9999
2 23467   9.6465  13.6677 0003175 306.9126 249.7171  1.00276099113591
UFO 7 (USA 127)
1 23967U 96042A   26032.77065580 -.00000224  00000-0  00000-0 0  9998
2 23967  10.9850  17.8050 0002706 127.5284 237.7002  1.00251823108133
JAS-2 (FO-29)
1 24278U 96046B   26032.86326506  .00000005  00000-0  37620-4 0  9994
2 24278  98.5428 260.1211 0350909  87.5419 276.5840 13.53266268454865
UFO 8 (USA 138)
1 25258U 98016A   26032.80540932 -.00000228  00000-0  00000-0 0  9993
2 25258  10.9661  23.5737 0008632 265.6345 281.9245  1.00292814102500
TECHSAT-1B (GO-32)
1 25397U 98043D   26032.91545103  .00000085  00000-0  56799-4 0  9994
2 25397  98.9977  22.3244 0000502 197.5452 162.5709 14.24395195432073
ISS (ZARYA)
1 25544U 98067A   26032.88782213  .00007269  00000-0  14305-3 0  9992
2 25544  51.6312 249.3384 0011112  54.7712 305.4314 15.48328191550782
UFO 10 (USA 146)
1 25967U 99063A   26032.77134913 -.00000198  00000-0  00000-0 0  9993
2 25967   9.8386  27.9223 0006027 279.2126  79.6456  1.00271836 95980
PCSAT (NO-44)
1 26931U 01043C   26032.93585602  .00000141  00000-0  83561-4 0  9993
2 26931  67.0488 234.0791 0007068 266.6731  93.3562 14.31890450271085
PROBA-1
1 26958U 01049B   26032.96660238  .00003295  00000-0  21846-3 0  9990
2 26958  97.9597  36.8279 0054772 218.9590 140.7685 15.06819102323251
SAUDISAT-1C (SO-50)
1 27607U 02058C   26032.87012522  .00001532  00000-0  19930-3 0  9993
2 27607  64.5522 187.5376 0074188 287.1758  72.1235 14.82631536244392
CUTE-1 (CO-55)
1 27844U 03031E   26032.94593478  .00000371  00000-0  17973-3 0  9995
2 27844  98.6771  43.1922 0008967 213.0400 147.0219 14.24233978172429
CUBESAT XI-IV (CO-57)
1 27848U 03031J   26032.93744987  .00000310  00000-0  15540-3 0  9992
2 27848  98.6800  43.0050 0008620 232.6069 127.4325 14.23533904172130
MOZHAYETS-4 (RS-22)
1 27939U 03042A   26033.01289397  .00001432  00000-0  23035-3 0  9998
2 27939  98.3389 213.5907 0011061 343.1503 173.7454 14.73145734195642
UFO 11 (USA 174)
1 28117U 03057A   26032.86656931 -.00000113  00000-0  00000-0 0  9997
2 28117   8.7938  34.4723 0003978 264.5064 220.4333  1.00272448 81096
CUBESAT XI-V (CO-58)
1 28895U 05043F   26032.96642165  .00001738  00000-0  28391-3 0  9991
2 28895  98.2769 185.9339 0013152 274.7638  85.2066 14.72150132 81857
CAPE-1
1 31130U 07012P   26032.90735601  .00001411  00000-0  26286-3 0  9996
2 31130  98.4307   3.9366 0085014 132.7917 228.0474 14.64426386998542
CUTE-1.7+APD II (CO-65)
1 32785U 08021C   26032.95071631  .00006566  00000-0  43248-3 0  9998
2 32785  97.8145  11.8125 0010661 122.6084 237.6174 15.07826089964809
SEEDS-II (CO-66)
1 32791U 08021J   26032.97495389  .00017313  00000-0  64614-3 0  9999
2 32791  97.7478  24.9765 0005613  76.9082 283.2783 15.27457336966610
YUBILEINY (RS-30)
1 32953U 08025A   26032.89490532  .00000077  00000-0  48067-3 0  9992
2 32953  82.5004  79.6034 0018412 244.8579 115.0591 12.43174499802889
KKS-1 (KISEKI)
1 33499U 09002H   26032.90131534  .00001716  00000-0  21964-3 0  9998
2 33499  98.1193 313.2562 0008426  19.1319 341.0209 14.82677260916140
SWISSCUBE
1 35932U 09051B   26032.68844085  .00001296  00000-0  26747-3 0  9990
2 35932  98.4135 298.1874 0005552 278.0146  82.0424 14.62149582869351
BEESAT
1 35933U 09051C   26032.69797289  .00001223  00000-0  25682-3 0  9992
2 35933  98.4062 298.1092 0004205 296.8487  63.2283 14.61439428869391
ITUPSAT-1
1 35935U 09051E   26032.70818776  .00001118  00000-0  24215-3 0  9995
2 35935  98.4150 297.4497 0006522 306.0866  53.9729 14.60181771868968
PROBA-2
1 36037U 09059B   26032.95476210  .00000322  00000-0  85652-4 0  9996
2 36037  98.2399 218.1923 0012751 343.4170  16.6609 14.54762219861863
XIWANG-1 (HOPE-1)
1 36122U 09072B   26032.88928115 -.00000196  00000-0 -39848-3 0  9990
2 36122 100.3847 348.9923 0007410 178.5219 181.5917 13.16434435775209
EWS-G2 (GOES-15)
1 36411U 10008A   26032.93073002  .00000026  00000-0  00000-0 0  9999
2 36411   0.9370  85.7384 0005141 197.2558 245.7145  1.00274844 58280
TISAT-1
1 36799U 10035E   26032.77481281  .00019713  00000-0  77193-3 0  9995
2 36799  98.0630 328.0166 0003748  42.6851 317.4676 15.25846088847017
HORYU-2
1 38340U 12025D   26032.57327351  .00004506  00000-0  47318-3 0  9995
2 38340  98.1974 160.2323 0007252 264.5094  95.5295 14.90003479728527
AAUSAT-3
1 39087U 13009B   26032.46229908  .00000888  00000-0  29708-3 0  9996
2 39087  98.3657 219.3609 0010492 258.8014 101.1995 14.39726298677648
STRAND-1
1 39090U 13009E   26032.91588746  .00000389  00000-0  14529-3 0  9999
2 39090  98.3853 216.5034 0007572 276.0610  83.9714 14.37060413677633
CUBEBUG-1 (CAPITAN BETO)
1 39153U 13018D   26032.93199072  .00003421  00000-0  30862-3 0  9999
2 39153  98.1460 187.0887 0011102 234.0455 125.9736 14.96208831690839
PROBA-V
1 39159U 13021A   26032.88981719  .00000074  00000-0  50673-4 0  9994
2 39159  98.3448  18.2750 0004518 154.1293 206.0114 14.23563750661868
ZACUBE-1 (TSHEPISOSAT)
1 39417U 13066B   26032.84364745  .00007148  00000-0  57179-3 0  9996
2 39417  97.8153 354.5016 0041312 343.6684  16.3205 14.99841331660437
TRITON-1
1 39427U 13066M   26032.99962788  .00004402  00000-0  53734-3 0  9997
2 39427  97.8324 305.9134 0090298 315.6707  43.7299 14.80945160654076
DELFI-N3XT
1 39428U 13066N   26032.76583667  .00009280  00000-0  84848-3 0  9997
2 39428  97.8355 313.4049 0076244 297.7141  61.6358 14.93006351654403
GOMX-1
1 39430U 13066Q   26032.92874706  .00002989  00000-0  45611-3 0  9999
2 39430  97.6580 241.8616 0130227 151.3136 209.5316 14.68932309650056
HUMSAT-D
1 39433U 13066T   26032.93636928  .00220845  00000-0  15200-2 0  9998
2 39433  97.4949  42.7342 0003648  48.0083 312.1491 15.73982863665798
VELOX-PII
1 39438U 13066Y   26032.82409332  .00003634  00000-0  35277-3 0  9990
2 39438  97.8601 344.2555 0055710  71.8649 288.8625 14.92098919657640
CUBEBUG-2 (LO-74)
1 39440U 13066AA  26032.83512701  .00003433  00000-0  32837-3 0  9995
2 39440  97.8769 341.4780 0060452 115.1934 245.5570 14.92519958656790
FUNCUBE-1 (AO-73)
1 39444U 13066AE  26032.86505611  .00010504  00000-0  69196-3 0  9999
2 39444  97.8123   1.8306 0036573 305.7942  53.9887 15.07153424659268
UWE-3
1 39446U 13066AG  26032.81049592  .00005530  00000-0  48904-3 0  9994
2 39446  97.8538 348.2312 0051819  52.2263 308.3635 14.95692020657335
UNISAT-6
1 40012U 14033C   26032.95361256  .00003861  00000-0  42547-3 0  9991
2 40012  97.7661 188.2771 0046333 153.0940 207.2694 14.87318839626051
DUCHIFAT-1
1 40021U 14033M   26032.62112611  .00040775  00000-0  84518-3 0  9993
2 40021  98.0704  74.9143 0005629 192.2939 167.8172 15.45617220634695
FUNCUBE-3 (EO-79)
1 40025U 14033R   26032.93806404  .00009973  00000-0  52705-3 0  9999
2 40025  98.0986  34.8353 0008351 341.2851  18.8072 15.15687234632526
SMAP
1 40376U 15003A   26032.96845301  .00000576  00000-0  12038-3 0  9993
2 40376  98.1300  41.9596 0001432  91.2434 268.8932 14.63427183587849
LILACSAT-2
1 40908U 15049K   26033.01099567  .00016651  00000-0  33506-3 0  9990
2 40908  97.4854  65.0248 0008512  35.3740 324.8072 15.46644967574827
LAPAN-A2 (IO-86)
1 40931U          25360.30710720  .00000000  00000-0  12800-3 0    00
2 40931   6.0006 332.5373 0012733 338.8432   8.1437 14.79075515    01
LQSAT
1 40958U 15057A   26032.95521315  .00001257  00000-0  18672-3 0  9990
2 40958  97.6625  33.0876 0017095 356.7866   3.3232 14.76564269555359
PRATHAM
1 41783U 16059A   26032.92843642  .00001001  00000-0  18604-3 0  9999
2 41783  97.8292  35.7744 0030016 290.5552  69.2433 14.66963393499683
ALSAT-1N
1 41789U 16059G   26032.99261715  .00001406  00000-0  24661-3 0  9996
2 41789  97.8019  42.3823 0024556 260.0370  99.8065 14.69027785500154
CAS-2T & KS-1Q
1 41847U 16066G   26032.75358204  .00001831  00000-0  26582-3 0  9999
2 41847  98.3957 109.9886 0343183 180.1894 179.9223 14.44330028485246
